{"type":"FeatureCollection", "features": [
{"type":"Feature","geometry":{"type":"Polygon","coordinates":[[[95.4841,27.2414],[95.535,27.2645],[95.5991,27.223],[95.8593,27.2873],[95.8922,27.2554],[96.0152,27.3684],[95.9411,27.4373],[95.8856,27.3983],[95.8833,27.4354],[95.8444,27.4217],[95.8869,27.4973],[95.8743,27.5442],[95.7912,27.5998],[95.7902,27.6803],[95.755,27.7248],[95.9717,27.9625],[95.6068,27.9551],[95.515,27.8798],[95.3918,27.7267],[95.2701,27.6808],[95.3183,27.5874],[95.2731,27.5742],[95.2199,27.4437],[95.2482,27.4046],[95.4738,27.367],[95.4406,27.2604],[95.4509,27.2312],[95.4669,27.2626],[95.4841,27.2414]]]},"properties":{"dt_code":"309","district":"Tinsukia","st_code":"18","year":"2011_c","st_nm":"Assam"}},
{"type":"Feature","geometry":{"type":"Polygon","coordinates":[[[95.515,27.8798],[95.3795,27.8394],[95.3087,27.8682],[95.1362,27.8158],[94.8524,27.7278],[94.7543,27.6608],[94.6879,27.6652],[94.4619,27.5555],[94.432,27.6003],[94.3629,27.575],[94.2774,27.5896],[94.2376,27.6327],[94.21,27.6039],[94.2658,27.5201],[94.3054,27.3969],[94.2472,27.392],[94.3097,27.3189],[94.3901,27.3505],[94.4433,27.309],[94.5925,27.3777],[94.6261,27.3376],[94.6384,27.3214],[94.6932,27.4217],[94.7464,27.4376],[94.9966,27.6591],[95.093,27.6602],[95.1963,27.7045],[95.205,27.658],[95.2701,27.6808],[95.3918,27.7267],[95.515,27.8798]]]},"properties":{"dt_code":"308","district":"Dhemaji","st_code":"18","year":"2011_c","st_nm":"Assam"}},
{"type":"Feature","geometry":{"type":"Polygon","coordinates":[[[95.2701,27.6808],[95.205,27.658],[95.1963,27.7045],[95.093,27.6602],[94.9966,27.6591],[94.7464,27.4376],[94.6932,27.4217],[94.6384,27.3214],[94.6261,27.3376],[94.5639,27.1812],[94.5928,27.1458],[94.642,27.2466],[94.6949,27.2719],[94.7208,27.2455],[94.7374,27.2747],[94.7809,27.1996],[94.7533,27.1405],[94.8354,27.0922],[94.9687,27.2244],[94.9783,27.148],[95.1531,27.1241],[95.2841,27.1974],[95.3562,27.1683],[95.3685,27.1098],[95.4532,27.1296],[95.4841,27.2414],[95.4669,27.2626],[95.4509,27.2312],[95.4406,27.2604],[95.4738,27.367],[95.2482,27.4046],[95.2199,27.4437],[95.2731,27.5742],[95.3183,27.5874],[95.2701,27.6808]]]},"properties":{"dt_code":"310","district":"Dibrugarh","st_code":"18","year":"2011_c","st_nm":"Assam"}},
{"type":"Feature","geometry":{"type":"Polygon","coordinates":[[[94.2658,27.5201],[94.1565,27.475],[94.0598,27.3618],[93.9913,27.3285],[93.7976,27.1364],[93.8291,27.0669],[93.7706,27.0622],[93.6975,26.9943],[93.7441,26.9581],[93.7394,26.8984],[93.7806,26.8858],[93.77,26.8449],[93.8238,26.8251],[93.8913,26.8649],[93.9205,26.9267],[93.9631,26.9243],[94.0229,26.932],[94.0598,26.9828],[94.1342,26.9691],[94.2548,27.0883],[94.312,27.071],[94.4187,27.093],[94.4795,27.1389],[94.5071,27.1216],[94.5639,27.1812],[94.6261,27.3376],[94.5925,27.3777],[94.4433,27.309],[94.3901,27.3505],[94.3097,27.3189],[94.2472,27.392],[94.3054,27.3969],[94.2658,27.5201]]]},"properties":{"dt_code":"307","district":"Lakhimpur","st_code":"18","year":"2011_c","st_nm":"Assam"}},
{"type":"Feature","geometry":{"type":"Polygon","coordinates":[[[94.5928,27.1458],[94.3971,26.9509],[94.4739,26.9353],[94.5121,26.7718],[94.5858,26.725],[94.7364,26.7495],[94.9242,26.9485],[94.9265,26.9932],[94.8481,26.9292],[94.7337,26.9325],[94.8298,27.0163],[94.8354,27.0922],[94.7533,27.1405],[94.7809,27.1996],[94.7374,27.2747],[94.7208,27.2455],[94.6949,27.2719],[94.642,27.2466],[94.5928,27.1458]]]},"properties":{"dt_code":"311","district":"Sivasagar","st_code":"18","year":"2011_c","st_nm":"Assam"}},
{"type":"Feature","geometry":{"type":"Polygon","coordinates":[[[94.3971,26.9509],[94.3213,26.8803],[94.3047,26.9094],[94.2093,26.9265],[93.9996,26.8668],[93.9724,26.7682],[94.0461,26.7385],[94.0435,26.6811],[94.098,26.6418],[94.0687,26.5942],[94.1146,26.5549],[94.0973,26.4843],[94.1375,26.3488],[94.1635,26.351],[94.1831,26.4554],[94.2824,26.5596],[94.3163,26.4585],[94.4007,26.5343],[94.4027,26.6107],[94.5207,26.6992],[94.5938,26.6973],[94.5858,26.725],[94.5121,26.7718],[94.4739,26.9353],[94.3971,26.9509]]]},"properties":{"dt_code":"312","district":"Jorhat","st_code":"18","year":"2011_c","st_nm":"Assam"}},
{"type":"Feature","geometry":{"type":"Polygon","coordinates":[[[93.0618,26.9221],[93.0216,26.9136],[92.8866,26.9998],[92.6723,27.0317],[92.6008,26.9669],[92.3602,26.9256],[92.3313,26.6627],[92.3642,26.6981],[92.3632,26.6431],[92.3991,26.6385],[92.3599,26.5832],[92.3805,26.5277],[92.3543,26.5349],[92.3406,26.5024],[92.4191,26.5145],[92.5759,26.4997],[92.7215,26.5362],[92.7484,26.511],[92.7713,26.5558],[92.9511,26.6203],[93.0967,26.5769],[93.1442,26.5945],[93.0681,26.7467],[93.0432,26.8509],[93.0618,26.9221]]]},"properties":{"dt_code":"306","district":"Sonitpur","st_code":"18","year":"2011_c","st_nm":"Assam"}},
{"type":"Feature","geometry":{"type":"Polygon","coordinates":[[[93.77,26.8449],[93.751,26.8036],[93.6487,26.788],[93.6706,26.7121],[93.5041,26.7569],[93.3964,26.7506],[93.3057,26.6984],[93.2974,26.5747],[93.4636,26.5692],[93.4779,26.603],[93.5533,26.6126],[93.6168,26.5659],[93.6321,26.5959],[93.7012,26.6074],[93.7524,26.5849],[93.7318,26.5379],[93.7992,26.4087],[93.775,26.384],[93.8268,26.4178],[93.8943,26.3719],[93.7799,26.0397],[93.8042,25.98],[93.7756,25.9685],[93.7952,25.8091],[93.9787,25.9168],[93.9528,26.0031],[94.0009,26.1724],[94.105,26.32],[94.1635,26.351],[94.1375,26.3488],[94.0973,26.4843],[94.1146,26.5549],[94.0687,26.5942],[94.098,26.6418],[94.0435,26.6811],[94.0461,26.7385],[93.9724,26.7682],[93.9996,26.8668],[93.9567,26.8921],[93.9631,26.9243],[93.9205,26.9267],[93.8913,26.8649],[93.8238,26.8251],[93.77,26.8449]]]},"properties":{"dt_code":"313","district":"Golaghat","st_code":"18","year":"2011_c","st_nm":"Assam"}},
{"type":"Feature","geometry":{"type":"Polygon","coordinates":[[[92.3602,26.9256],[92.1136,26.8929],[92.0562,26.8468],[91.8594,26.9133],[91.8242,26.8638],[91.7042,26.8127],[91.778,26.5126],[91.8332,26.5154],[91.8099,26.5439],[91.8338,26.5832],[91.87,26.5318],[91.8966,26.5695],[91.9279,26.5373],[92.0282,26.5423],[92.0505,26.4755],[92.0684,26.545],[92.1087,26.5703],[92.0625,26.5874],[92.0568,26.547],[92.0286,26.5459],[92.0096,26.5898],[92.0728,26.647],[92.1808,26.6687],[92.2346,26.597],[92.2306,26.5489],[92.2649,26.5706],[92.2423,26.6033],[92.2758,26.6574],[92.3599,26.5832],[92.3991,26.6385],[92.3632,26.6431],[92.3642,26.6981],[92.3313,26.6627],[92.3602,26.9256]]]},"properties":{"dt_code":"326","district":"Udalguri","st_code":"18","year":"2011_c","st_nm":"Assam"}},
{"type":"Feature","geometry":{"type":"Polygon","coordinates":[[[90.8754,26.5632],[90.9508,26.7781],[90.6464,26.7767],[90.4178,26.9045],[90.3556,26.9009],[90.336,26.8627],[90.3772,26.7176],[90.355,26.57],[90.4078,26.5033],[90.3992,26.4417],[90.4773,26.4626],[90.4766,26.3856],[90.5198,26.5093],[90.6823,26.4991],[90.7358,26.442],[90.7747,26.5305],[90.8478,26.528],[90.8232,26.561],[90.8754,26.5632]]]},"properties":{"dt_code":"320","district":"Chirang","st_code":"18","year":"2011_c","st_nm":"Assam"}},
{"type":"Feature","geometry":{"type":"Polygon","coordinates":[[[91.7042,26.8127],[91.4952,26.7913],[91.4081,26.8399],[91.3373,26.7805],[91.0977,26.822],[91.0542,26.7808],[90.9508,26.7781],[90.8754,26.5632],[90.9259,26.5755],[90.9319,26.5549],[90.9349,26.5841],[90.995,26.6008],[90.9771,26.4997],[90.9329,26.4777],[90.9731,26.4612],[90.9817,26.4164],[91.0143,26.4458],[90.991,26.5239],[91.0718,26.5162],[91.1422,26.6008],[91.0977,26.6289],[91.0974,26.6654],[91.1456,26.6627],[91.1845,26.6044],[91.2486,26.6195],[91.2376,26.5772],[91.2901,26.5643],[91.2496,26.5233],[91.2968,26.5461],[91.2968,26.4849],[91.4759,26.5709],[91.5065,26.5324],[91.5776,26.572],[91.5779,26.5291],[91.6195,26.5129],[91.6251,26.4472],[91.6766,26.4483],[91.7248,26.503],[91.7793,26.4791],[91.8016,26.4898],[91.778,26.5126],[91.7042,26.8127]]]},"properties":{"dt_code":"324","district":"Baksa","st_code":"18","year":"2011_c","st_nm":"Assam"}},
{"type":"Feature","geometry":{"type":"Polygon","coordinates":[[[92.4191,26.5145],[92.4407,26.3703],[92.5513,26.3821],[92.5683,26.3378],[92.5041,26.273],[92.4194,26.2702],[92.431,26.1908],[92.3955,26.1136],[92.4413,26.0954],[92.5221,26.1551],[92.5198,26.1023],[92.5706,26.1166],[92.5939,26.0215],[92.552,25.966],[92.7534,26.0548],[92.7059,26.1422],[92.7514,26.1419],[92.756,26.1793],[92.8019,26.2018],[92.8441,26.3051],[92.8797,26.2837],[92.9428,26.3304],[92.9092,26.3529],[92.9259,26.379],[92.882,26.3799],[92.9019,26.4013],[93.1176,26.4417],[93.1253,26.4958],[93.1023,26.4601],[93.0644,26.4794],[93.0904,26.5],[93.0086,26.481],[93.0432,26.5351],[93.115,26.531],[93.1914,26.567],[93.2097,26.556],[93.1608,26.5239],[93.1994,26.5335],[93.2044,26.5013],[93.2333,26.5357],[93.2908,26.5077],[93.2353,26.5527],[93.2974,26.5747],[93.3057,26.6984],[93.2416,26.6838],[93.22,26.6311],[93.1442,26.5945],[93.0967,26.5769],[92.9511,26.6203],[92.7713,26.5558],[92.7484,26.511],[92.7215,26.5362],[92.5759,26.4997],[92.4191,26.5145]]]},"properties":{"dt_code":"305","district":"Nagaon","st_code":"18","year":"2011_c","st_nm":"Assam"}},
{"type":"Feature","geometry":{"type":"Polygon","coordinates":[[[90.336,26.8627],[90.2307,26.8589],[90.1948,26.7737],[90.128,26.7503],[89.8588,26.7349],[89.8741,26.5841],[89.8432,26.3832],[89.903,26.337],[89.8601,26.1881],[89.9159,26.1166],[90.025,26.1268],[90.1522,26.2089],[90.0974,26.2623],[90.1406,26.2763],[90.1167,26.3389],[90.1878,26.3455],[90.227,26.384],[90.216,26.3288],[90.2672,26.3307],[90.2812,26.2922],[90.2516,26.2645],[90.2872,26.2375],[90.3207,26.2787],[90.3812,26.2686],[90.3958,26.3571],[90.4251,26.3631],[90.3992,26.4417],[90.4078,26.5033],[90.355,26.57],[90.3772,26.7176],[90.336,26.8627]]]},"properties":{"dt_code":"300","district":"Kokrajhar","st_code":"18","year":"2011_c","st_nm":"Assam"}},
{"type":"Feature","geometry":{"type":"Polygon","coordinates":[[[92.3599,26.5832],[92.2758,26.6574],[92.2423,26.6033],[92.2649,26.5706],[92.2306,26.5489],[92.2346,26.597],[92.1808,26.6687],[92.0728,26.647],[92.0096,26.5898],[92.0286,26.5459],[92.0568,26.547],[92.0625,26.5874],[92.1087,26.5703],[92.0684,26.545],[92.0505,26.4755],[92.0282,26.5423],[91.9279,26.5373],[91.8966,26.5695],[91.87,26.5318],[91.8338,26.5832],[91.8099,26.5439],[91.8332,26.5154],[91.778,26.5126],[91.8016,26.4898],[91.7793,26.4791],[91.8219,26.3318],[91.782,26.3054],[91.7487,26.2092],[91.88,26.2166],[91.98,26.2743],[92.0402,26.273],[92.1572,26.4123],[92.2187,26.4156],[92.3406,26.5024],[92.3543,26.5349],[92.3805,26.5277],[92.3599,26.5832]]]},"properties":{"dt_code":"325","district":"Darrang","st_code":"18","year":"2011_c","st_nm":"Assam"}},
{"type":"Feature","geometry":{"type":"Polygon","coordinates":[[[90.8478,26.528],[90.8049,26.4967],[90.8275,26.4489],[90.797,26.4357],[90.8558,26.439],[90.8598,26.3628],[90.8179,26.367],[90.8026,26.307],[90.7514,26.3095],[90.7331,26.2579],[90.6534,26.2372],[90.67,26.2021],[90.7145,26.1301],[90.9435,26.0946],[91.0811,26.1617],[91.2233,26.179],[91.2483,26.2012],[91.216,26.2672],[91.2612,26.2895],[91.2825,26.3752],[91.237,26.378],[91.2496,26.5233],[91.2901,26.5643],[91.2376,26.5772],[91.2486,26.6195],[91.1845,26.6044],[91.1456,26.6627],[91.0974,26.6654],[91.0977,26.6289],[91.1422,26.6008],[91.0718,26.5162],[90.991,26.5239],[91.0143,26.4458],[90.9817,26.4164],[90.9731,26.4612],[90.9329,26.4777],[90.9771,26.4997],[90.995,26.6008],[90.9349,26.5841],[90.9319,26.5549],[90.9259,26.5755],[90.8754,26.5632],[90.8232,26.561],[90.8478,26.528]]]},"properties":{"dt_code":"303","district":"Barpeta","st_code":"18","year":"2011_c","st_nm":"Assam"}},
{"type":"Feature","geometry":{"type":"Polygon","coordinates":[[[91.2496,26.5233],[91.237,26.378],[91.2825,26.3752],[91.2612,26.2895],[91.216,26.2672],[91.2483,26.2012],[91.2233,26.179],[91.4144,26.1361],[91.4128,26.2656],[91.4513,26.2697],[91.455,26.3202],[91.5251,26.3367],[91.5779,26.5291],[91.5776,26.572],[91.5065,26.5324],[91.4759,26.5709],[91.2968,26.4849],[91.2968,26.5461],[91.2496,26.5233]]]},"properties":{"dt_code":"323","district":"Nalbari","st_code":"18","year":"2011_c","st_nm":"Assam"}},
{"type":"Feature","geometry":{"type":"Polygon","coordinates":[[[92.3406,26.5024],[92.2187,26.4156],[92.1572,26.4123],[92.0402,26.273],[91.98,26.2743],[91.9721,26.2482],[92.0555,26.2205],[92.0801,26.1773],[92.1672,26.1639],[92.1728,26.0757],[92.2735,26.0658],[92.3629,26.0776],[92.3955,26.1136],[92.431,26.1908],[92.4194,26.2702],[92.5041,26.273],[92.5683,26.3378],[92.5513,26.3821],[92.4407,26.3703],[92.4191,26.5145],[92.3406,26.5024]]]},"properties":{"dt_code":"304","district":"Morigaon","st_code":"18","year":"2011_c","st_nm":"Assam"}},
{"type":"Feature","geometry":{"type":"Polygon","coordinates":[[[91.5779,26.5291],[91.5251,26.3367],[91.455,26.3202],[91.4513,26.2697],[91.4128,26.2656],[91.4144,26.1361],[91.2233,26.179],[91.0811,26.1617],[90.9435,26.0946],[91.0994,26.01],[91.0256,25.8858],[91.0073,25.8248],[91.1957,25.8616],[91.1781,25.7775],[91.2223,25.7225],[91.3357,25.8407],[91.5088,25.8668],[91.4746,25.8742],[91.5799,26.0333],[91.6311,26.0221],[91.6407,25.9638],[91.6095,25.9374],[91.6706,25.9042],[91.7225,25.9657],[91.7232,26.035],[91.6294,26.0748],[91.5686,26.06],[91.5646,26.1449],[91.649,26.1655],[91.6647,26.2197],[91.7119,26.1914],[91.7487,26.2092],[91.782,26.3054],[91.8219,26.3318],[91.7793,26.4791],[91.7248,26.503],[91.6766,26.4483],[91.6251,26.4472],[91.6195,26.5129],[91.5779,26.5291]]]},"properties":{"dt_code":"321","district":"Kamrup","st_code":"18","year":"2011_c","st_nm":"Assam"}},
{"type":"Feature","geometry":{"type":"Polygon","coordinates":[[[90.3992,26.4417],[90.4251,26.3631],[90.457,26.3573],[90.4836,26.2961],[90.3902,26.2034],[90.4447,26.1658],[90.6002,26.2153],[90.67,26.2021],[90.6534,26.2372],[90.7331,26.2579],[90.7514,26.3095],[90.8026,26.307],[90.8179,26.367],[90.8598,26.3628],[90.8558,26.439],[90.797,26.4357],[90.8275,26.4489],[90.8049,26.4967],[90.8478,26.528],[90.7747,26.5305],[90.7358,26.442],[90.6823,26.4991],[90.5198,26.5093],[90.4766,26.3856],[90.4773,26.4626],[90.3992,26.4417]]]},"properties":{"dt_code":"319","district":"Bongaigaon","st_code":"18","year":"2011_c","st_nm":"Assam"}},
{"type":"Feature","geometry":{"type":"Polygon","coordinates":[[[89.8432,26.3832],[89.7511,26.3211],[89.7571,26.2889],[89.7202,26.3065],[89.7385,26.27],[89.7023,26.2592],[89.7322,26.2367],[89.7006,26.218],[89.7342,26.21],[89.6986,26.1908],[89.7946,26.0889],[89.788,26.019],[89.8086,26.0438],[89.8206,25.9874],[89.8362,26.0127],[89.8727,25.9773],[89.8252,25.9459],[89.8874,25.9451],[89.8432,25.883],[89.9302,25.9064],[89.9721,25.9754],[90.0562,26.0006],[90.0824,26.0405],[90.1785,26.0482],[90.1738,26.1031],[90.2479,26.1405],[90.2649,26.1831],[90.3902,26.2034],[90.4836,26.2961],[90.457,26.3573],[90.4251,26.3631],[90.3958,26.3571],[90.3812,26.2686],[90.3207,26.2787],[90.2872,26.2375],[90.2516,26.2645],[90.2812,26.2922],[90.2672,26.3307],[90.216,26.3288],[90.227,26.384],[90.1878,26.3455],[90.1167,26.3389],[90.1406,26.2763],[90.0974,26.2623],[90.1522,26.2089],[90.025,26.1268],[89.9159,26.1166],[89.8601,26.1881],[89.903,26.337],[89.8432,26.3832]]]},"properties":{"dt_code":"301","district":"Dhubri","st_code":"18","year":"2011_c","st_nm":"Assam"}},
{"type":"Feature","geometry":{"type":"Polygon","coordinates":[[[91.7487,26.2092],[91.7119,26.1914],[91.6647,26.2197],[91.649,26.1655],[91.5646,26.1449],[91.5686,26.06],[91.6294,26.0748],[91.7232,26.035],[91.8252,26.1196],[91.879,26.0982],[91.8674,26.0421],[91.9196,25.9987],[92.1728,26.0757],[92.1672,26.1639],[92.0801,26.1773],[92.0555,26.2205],[91.9721,26.2482],[91.98,26.2743],[91.88,26.2166],[91.7487,26.2092]]]},"properties":{"dt_code":"322","district":"Kamrup Metropolitan","st_code":"18","year":"2011_c","st_nm":"Assam"}},
{"type":"Feature","geometry":{"type":"Polygon","coordinates":[[[90.67,26.2021],[90.6002,26.2153],[90.4447,26.1658],[90.3902,26.2034],[90.2649,26.1831],[90.2479,26.1405],[90.1738,26.1031],[90.1785,26.0482],[90.1875,26.0015],[90.1223,25.9589],[90.1868,25.9443],[90.3247,25.9734],[90.3623,26.0089],[90.4759,26.0097],[90.5351,25.9498],[90.5135,25.8965],[90.5879,25.958],[90.6241,25.9394],[90.6218,25.8979],[90.7172,25.955],[90.778,25.9086],[90.8089,25.9525],[90.8844,25.9503],[90.9169,25.9141],[90.9173,25.9446],[90.9475,25.9481],[90.9688,25.8852],[91.0256,25.8858],[91.0994,26.01],[90.9435,26.0946],[90.7145,26.1301],[90.67,26.2021]]]},"properties":{"dt_code":"302","district":"Goalpara","st_code":"18","year":"2011_c","st_nm":"Assam"}},
{"type":"Feature","geometry":{"type":"Polygon","coordinates":[[[93.0644,25.7753],[93.0033,25.7866],[93.0063,25.8264],[92.9834,25.783],[92.9634,25.8179],[92.9285,25.8069],[92.9229,25.7723],[92.8208,25.7415],[92.7673,25.6178],[92.6607,25.5717],[92.5666,25.4634],[92.5988,25.4661],[92.6065,25.4134],[92.6537,25.4337],[92.7381,25.3796],[92.7923,25.2826],[92.7617,25.2466],[92.8016,25.2155],[92.6633,25.1768],[92.6214,25.1152],[92.5224,25.1394],[92.5394,25.0993],[92.7225,25.1127],[92.7305,25.143],[92.8358,25.0525],[93.0369,25.1045],[93.0143,25.0619],[93.0618,25.0023],[93.2459,24.9726],[93.2642,25.0495],[93.2997,25.0462],[93.3323,25.0935],[93.3812,25.2397],[93.4705,25.3051],[93.4583,25.431],[93.3901,25.4604],[93.329,25.5431],[93.2087,25.5436],[93.1764,25.5928],[93.1917,25.6318],[93.1316,25.6865],[93.1425,25.7184],[93.1296,25.761],[93.0644,25.7753]]]},"properties":{"dt_code":"315","district":"Dima Hasao","st_code":"18","year":"2011_c","st_nm":"Assam"}},
{"type":"Feature","geometry":{"type":"Polygon","coordinates":[[[92.5394,25.0993],[92.4809,25.1086],[92.4643,25.0374],[92.425,25.0297],[92.4184,24.9665],[92.4872,24.947],[92.4905,24.8742],[92.5151,24.8794],[92.5802,24.8725],[92.6836,24.8146],[92.6504,24.6846],[92.6966,24.6153],[92.668,24.5911],[92.7172,24.5617],[92.7354,24.5903],[92.7796,24.5683],[92.7604,24.5145],[92.8262,24.3765],[92.9089,24.4117],[92.9601,24.3919],[93.0352,24.4098],[93.0588,24.5738],[93.1043,24.5826],[93.0714,24.6005],[93.104,24.6741],[93.0734,24.7079],[93.1076,24.7415],[93.1093,24.8115],[93.1495,24.7874],[93.1911,24.8041],[93.2489,24.9149],[93.2459,24.9726],[93.0618,25.0023],[93.0143,25.0619],[93.0369,25.1045],[92.8358,25.0525],[92.7305,25.143],[92.7225,25.1127],[92.5394,25.0993]]]},"properties":{"dt_code":"316","district":"Cachar","st_code":"18","year":"2011_c","st_nm":"Assam"}},
{"type":"Feature","geometry":{"type":"Polygon","coordinates":[[[92.5151,24.8794],[92.3998,24.8486],[92.2988,24.9157],[92.2336,24.8997],[92.2958,24.7365],[92.2117,24.5046],[92.2599,24.3586],[92.1924,24.2432],[92.424,24.255],[92.4915,24.3691],[92.5171,24.5741],[92.4935,24.6832],[92.5802,24.8725],[92.5151,24.8794]]]},"properties":{"dt_code":"317","district":"Karimganj","st_code":"18","year":"2011_c","st_nm":"Assam"}},
{"type":"Feature","geometry":{"type":"Polygon","coordinates":[[[92.5802,24.8725],[92.4935,24.6832],[92.5171,24.5741],[92.4915,24.3691],[92.424,24.255],[92.4191,24.1927],[92.4649,24.1366],[92.5297,24.177],[92.5507,24.2471],[92.6125,24.2559],[92.6248,24.3342],[92.6896,24.3537],[92.7604,24.5145],[92.7796,24.5683],[92.7354,24.5903],[92.7172,24.5617],[92.668,24.5911],[92.6966,24.6153],[92.6504,24.6846],[92.6836,24.8146],[92.5802,24.8725]]]},"properties":{"dt_code":"318","district":"Hailakandi","st_code":"18","year":"2011_c","st_nm":"Assam"}},
{"type":"Feature","geometry":{"type":"Polygon","coordinates":[[[94.8354,27.0922],[94.8298,27.0163],[94.7337,26.9325],[94.8481,26.9292],[94.9265,26.9932],[94.9242,26.9485],[95.0165,26.9212],[95.3685,27.1098],[95.3562,27.1683],[95.2841,27.1974],[95.1531,27.1241],[94.9783,27.148],[94.9687,27.2244],[94.8354,27.0922]]]},"properties":{"dt_code":"755","district":"Charaideo","st_code":"18","year":"2015_c","st_nm":"Assam"}},
{"type":"Feature","geometry":{"type":"Polygon","coordinates":[[[94.5639,27.1812],[94.5071,27.1216],[94.4795,27.1389],[94.4187,27.093],[94.312,27.071],[94.2548,27.0883],[94.1342,26.9691],[94.0598,26.9828],[94.0229,26.932],[93.9631,26.9243],[93.9567,26.8921],[93.9996,26.8668],[94.2093,26.9265],[94.3047,26.9094],[94.3213,26.8803],[94.3971,26.9509],[94.5928,27.1458],[94.5639,27.1812]]]},"properties":{"dt_code":"760","district":"Majuli","st_code":"18","year":"2016_c","st_nm":"Assam"}},
{"type":"Feature","geometry":{"type":"Polygon","coordinates":[[[93.6975,26.9943],[93.4705,26.9366],[93.2868,26.9542],[93.0618,26.9221],[93.0432,26.8509],[93.0681,26.7467],[93.1442,26.5945],[93.22,26.6311],[93.2416,26.6838],[93.3057,26.6984],[93.3964,26.7506],[93.5041,26.7569],[93.6706,26.7121],[93.6487,26.788],[93.751,26.8036],[93.77,26.8449],[93.7806,26.8858],[93.7394,26.8984],[93.7441,26.9581],[93.6975,26.9943]]]},"properties":{"dt_code":"756","district":"Biswanath","st_code":"18","year":"2015_c","st_nm":"Assam"}},
{"type":"Feature","geometry":{"type":"Polygon","coordinates":[[[92.7534,26.0548],[92.7826,26.01],[92.757,26.0026],[92.7627,25.9605],[92.8069,25.9567],[92.8012,25.9187],[92.8541,25.9248],[92.868,25.8685],[92.9824,25.8753],[93.0644,25.7753],[93.1296,25.761],[93.1425,25.7184],[93.2266,25.7267],[93.2459,25.8052],[93.1582,25.9954],[93.0934,26.0331],[93.1083,26.0781],[92.9342,26.1367],[92.9395,26.2026],[92.8019,26.2018],[92.756,26.1793],[92.7514,26.1419],[92.7059,26.1422],[92.7534,26.0548]]]},"properties":{"dt_code":"757","district":"Hojai","st_code":"18","year":"2015_c","st_nm":"Assam"}},
{"type":"Feature","geometry":{"type":"Polygon","coordinates":[[[89.8432,25.883],[89.8269,25.733],[89.8824,25.6173],[89.8511,25.4664],[89.886,25.5079],[89.8771,25.5491],[90.02,25.6074],[89.8947,25.7451],[89.9372,25.7453],[89.9482,25.8256],[90.0037,25.8393],[90.008,25.8816],[90.1223,25.9589],[90.1875,26.0015],[90.1785,26.0482],[90.0824,26.0405],[90.0562,26.0006],[89.9721,25.9754],[89.9302,25.9064],[89.8432,25.883]]]},"properties":{"dt_code":"758","district":"South Salmara Mankachar","st_code":"18","year":"2015_c","st_nm":"Assam"}},
{"type":"Feature","geometry":{"type":"Polygon","coordinates":[[[93.2974,26.5747],[93.2353,26.5527],[93.2908,26.5077],[93.2333,26.5357],[93.2044,26.5013],[93.1994,26.5335],[93.1608,26.5239],[93.2097,26.556],[93.1914,26.567],[93.115,26.531],[93.0432,26.5351],[93.0086,26.481],[93.0904,26.5],[93.0644,26.4794],[93.1023,26.4601],[93.1253,26.4958],[93.1176,26.4417],[92.9019,26.4013],[92.882,26.3799],[92.9259,26.379],[92.9092,26.3529],[92.9428,26.3304],[92.8797,26.2837],[92.8441,26.3051],[92.8019,26.2018],[92.9395,26.2026],[92.9342,26.1367],[93.1083,26.0781],[93.0934,26.0331],[93.1582,25.9954],[93.2459,25.8052],[93.2266,25.7267],[93.1425,25.7184],[93.1316,25.6865],[93.1917,25.6318],[93.1764,25.5928],[93.2087,25.5436],[93.329,25.5431],[93.4263,25.6321],[93.4965,25.6547],[93.646,25.8226],[93.7141,25.8445],[93.6816,25.9045],[93.7756,25.9685],[93.8042,25.98],[93.7799,26.0397],[93.8943,26.3719],[93.8268,26.4178],[93.775,26.384],[93.7992,26.4087],[93.7318,26.5379],[93.7524,26.5849],[93.7012,26.6074],[93.6321,26.5959],[93.6168,26.5659],[93.5533,26.6126],[93.4779,26.603],[93.4636,26.5692],[93.2974,26.5747]]]},"properties":{"dt_code":"314","district":"Karbi Anglong","st_code":"18","year":"2011_c","st_nm":"Assam"}},
{"type":"Feature","geometry":{"type":"Polygon","coordinates":[[[92.3955,26.1136],[92.3629,26.0776],[92.2735,26.0658],[92.1522,25.9443],[92.1545,25.9113],[92.2256,25.9094],[92.1509,25.8168],[92.1522,25.6714],[92.3842,25.7547],[92.4443,25.7198],[92.5055,25.6165],[92.554,25.6148],[92.5846,25.5505],[92.6514,25.5892],[92.6607,25.5717],[92.7673,25.6178],[92.8208,25.7415],[92.9229,25.7723],[92.9285,25.8069],[92.9634,25.8179],[92.9834,25.783],[93.0063,25.8264],[93.0033,25.7866],[93.0644,25.7753],[92.9824,25.8753],[92.868,25.8685],[92.8541,25.9248],[92.8012,25.9187],[92.8069,25.9567],[92.7627,25.9605],[92.757,26.0026],[92.7826,26.01],[92.7534,26.0548],[92.552,25.966],[92.5939,26.0215],[92.5706,26.1166],[92.5198,26.1023],[92.5221,26.1551],[92.4413,26.0954],[92.3955,26.1136]]]},"properties":{"dt_code":"759","district":"West Karbi Anglong","st_code":"18","year":"2016_c","st_nm":"Assam"}}
]}